[{"OBJECT_NAME":"UNKNOWN","OBJECT_ID":"","EPOCH":"2026-02-05T09:28:11.974656","MEAN_MOTION":13.5505491,"ECCENTRICITY":0.0056763,"INCLINATION":100.3205,"RA_OF_ASC_NODE":275.4666,"ARG_OF_PERICENTER":304.9355,"MEAN_ANOMALY":54.6455,"EPHEMERIS_TYPE":0,"CLASSIFICATION_TYPE":"U","NORAD_CAT_ID":81438,"ELEMENT_SET_NO":999,"REV_AT_EPOCH":59934,"BSTAR":0.0048396,"MEAN_MOTION_DOT":3.322e-5,"MEAN_MOTION_DDOT":0},{"OBJECT_NAME":"UNKNOWN","OBJECT_ID":"","EPOCH":"2026-03-02T04:13:04.844928","MEAN_MOTION":12.62648361,"ECCENTRICITY":0.05961,"INCLINATION":67.1627,"RA_OF_ASC_NODE":348.1998,"ARG_OF_PERICENTER":154.3128,"MEAN_ANOMALY":208.8823,"EPHEMERIS_TYPE":0,"CLASSIFICATION_TYPE":"U","NORAD_CAT_ID":81439,"ELEMENT_SET_NO":999,"REV_AT_EPOCH":27192,"BSTAR":0.0011705,"MEAN_MOTION_DOT":3.67e-6,"MEAN_MOTION_DDOT":0},{"OBJECT_NAME":"UNKNOWN","OBJECT_ID":"","EPOCH":"2026-03-03T03:41:32.880192","MEAN_MOTION":15.16098238,"ECCENTRICITY":0.0023195,"INCLINATION":66.7884,"RA_OF_ASC_NODE":114.8735,"ARG_OF_PERICENTER":20.1934,"MEAN_ANOMALY":340.012,"EPHEMERIS_TYPE":0,"CLASSIFICATION_TYPE":"U","NORAD_CAT_ID":81449,"ELEMENT_SET_NO":999,"REV_AT_EPOCH":64567,"BSTAR":0.0065372,"MEAN_MOTION_DOT":0.00129316,"MEAN_MOTION_DDOT":0},{"OBJECT_NAME":"UNKNOWN","OBJECT_ID":"","EPOCH":"2026-03-03T05:56:48.495264","MEAN_MOTION":14.28997029,"ECCENTRICITY":0.0145319,"INCLINATION":98.9519,"RA_OF_ASC_NODE":341.2597,"ARG_OF_PERICENTER":124.103,"MEAN_ANOMALY":33.1695,"EPHEMERIS_TYPE":0,"CLASSIFICATION_TYPE":"U","NORAD_CAT_ID":81478,"ELEMENT_SET_NO":999,"REV_AT_EPOCH":63443,"BSTAR":0.0013778,"MEAN_MOTION_DOT":3.859e-5,"MEAN_MOTION_DDOT":0},{"OBJECT_NAME":"UNKNOWN","OBJECT_ID":"","EPOCH":"2026-03-03T03:54:26.719200","MEAN_MOTION":13.56549084,"ECCENTRICITY":0.004455,"INCLINATION":99.9938,"RA_OF_ASC_NODE":300.9994,"ARG_OF_PERICENTER":159.4309,"MEAN_ANOMALY":352.8371,"EPHEMERIS_TYPE":0,"CLASSIFICATION_TYPE":"U","NORAD_CAT_ID":81488,"ELEMENT_SET_NO":999,"REV_AT_EPOCH":60753,"BSTAR":0.00034814,"MEAN_MOTION_DOT":2.01e-6,"MEAN_MOTION_DDOT":0},{"OBJECT_NAME":"UNKNOWN","OBJECT_ID":"","EPOCH":"2026-03-01T23:31:12.157248","MEAN_MOTION":13.84808267,"ECCENTRICITY":0.0027031,"INCLINATION":100.2999,"RA_OF_ASC_NODE":328.2356,"ARG_OF_PERICENTER":170.175,"MEAN_ANOMALY":255.6004,"EPHEMERIS_TYPE":0,"CLASSIFICATION_TYPE":"U","NORAD_CAT_ID":81497,"ELEMENT_SET_NO":999,"REV_AT_EPOCH":22726,"BSTAR":0.0033385,"MEAN_MOTION_DOT":3.724e-5,"MEAN_MOTION_DDOT":0},{"OBJECT_NAME":"UNKNOWN","OBJECT_ID":"","EPOCH":"2026-03-03T10:25:52.167648","MEAN_MOTION":14.47653107,"ECCENTRICITY":0.0002874,"INCLINATION":74.0473,"RA_OF_ASC_NODE":70.2915,"ARG_OF_PERICENTER":239.4746,"MEAN_ANOMALY":120.613,"EPHEMERIS_TYPE":0,"CLASSIFICATION_TYPE":"U","NORAD_CAT_ID":81499,"ELEMENT_SET_NO":999,"REV_AT_EPOCH":49409,"BSTAR":0.00098592,"MEAN_MOTION_DOT":3.61e-5,"MEAN_MOTION_DDOT":0},{"OBJECT_NAME":"UNKNOWN","OBJECT_ID":"","EPOCH":"2026-02-28T15:39:12.400704","MEAN_MOTION":14.13624769,"ECCENTRICITY":0.0233465,"INCLINATION":98.1914,"RA_OF_ASC_NODE":140.4812,"ARG_OF_PERICENTER":283.1073,"MEAN_ANOMALY":74.4143,"EPHEMERIS_TYPE":0,"CLASSIFICATION_TYPE":"U","NORAD_CAT_ID":81535,"ELEMENT_SET_NO":999,"REV_AT_EPOCH":39840,"BSTAR":0.0004222,"MEAN_MOTION_DOT":9.9e-6,"MEAN_MOTION_DDOT":0},{"OBJECT_NAME":"UNKNOWN","OBJECT_ID":"","EPOCH":"2026-03-03T14:03:07.384896","MEAN_MOTION":12.55972919,"ECCENTRICITY":0.0018077,"INCLINATION":101.9677,"RA_OF_ASC_NODE":289.6302,"ARG_OF_PERICENTER":124.4323,"MEAN_ANOMALY":264.8436,"EPHEMERIS_TYPE":0,"CLASSIFICATION_TYPE":"U","NORAD_CAT_ID":81536,"ELEMENT_SET_NO":999,"REV_AT_EPOCH":56196,"BSTAR":0.0037101,"MEAN_MOTION_DOT":5.64e-6,"MEAN_MOTION_DDOT":0},{"OBJECT_NAME":"UNKNOWN","OBJECT_ID":"","EPOCH":"2026-03-02T08:52:38.100288","MEAN_MOTION":14.07156543,"ECCENTRICITY":0.0075868,"INCLINATION":71.0398,"RA_OF_ASC_NODE":304.5004,"ARG_OF_PERICENTER":31.01,"MEAN_ANOMALY":329.5464,"EPHEMERIS_TYPE":0,"CLASSIFICATION_TYPE":"U","NORAD_CAT_ID":81537,"ELEMENT_SET_NO":999,"REV_AT_EPOCH":63166,"BSTAR":0.00019949,"MEAN_MOTION_DOT":2.97e-6,"MEAN_MOTION_DDOT":0},{"OBJECT_NAME":"UNKNOWN","OBJECT_ID":"","EPOCH":"2026-03-02T13:33:18.761472","MEAN_MOTION":13.31539105,"ECCENTRICITY":0.0246381,"INCLINATION":67.2933,"RA_OF_ASC_NODE":108.2804,"ARG_OF_PERICENTER":25.3108,"MEAN_ANOMALY":125.2996,"EPHEMERIS_TYPE":0,"CLASSIFICATION_TYPE":"U","NORAD_CAT_ID":81599,"ELEMENT_SET_NO":999,"REV_AT_EPOCH":59570,"BSTAR":0.00020167,"MEAN_MOTION_DOT":5.2e-7,"MEAN_MOTION_DDOT":0},{"OBJECT_NAME":"UNKNOWN","OBJECT_ID":"","EPOCH":"2026-03-03T04:05:33.067104","MEAN_MOTION":12.8143457,"ECCENTRICITY":0.0150635,"INCLINATION":56.4348,"RA_OF_ASC_NODE":345.6997,"ARG_OF_PERICENTER":250.6305,"MEAN_ANOMALY":107.8283,"EPHEMERIS_TYPE":0,"CLASSIFICATION_TYPE":"U","NORAD_CAT_ID":81605,"ELEMENT_SET_NO":999,"REV_AT_EPOCH":19651,"BSTAR":-0.0072951,"MEAN_MOTION_DOT":-1.881e-5,"MEAN_MOTION_DDOT":0},{"OBJECT_NAME":"UNKNOWN","OBJECT_ID":"","EPOCH":"2026-03-02T11:15:16.352928","MEAN_MOTION":12.38095723,"ECCENTRICITY":0.0365882,"INCLINATION":101.8459,"RA_OF_ASC_NODE":59.8973,"ARG_OF_PERICENTER":359.1406,"MEAN_ANOMALY":0.8994,"EPHEMERIS_TYPE":0,"CLASSIFICATION_TYPE":"U","NORAD_CAT_ID":81614,"ELEMENT_SET_NO":999,"REV_AT_EPOCH":54784,"BSTAR":0.038251,"MEAN_MOTION_DOT":6.236e-5,"MEAN_MOTION_DDOT":0},{"OBJECT_NAME":"UNKNOWN","OBJECT_ID":"","EPOCH":"2026-03-02T13:32:36.193920","MEAN_MOTION":13.34425688,"ECCENTRICITY":0.0767137,"INCLINATION":65.8255,"RA_OF_ASC_NODE":236.074,"ARG_OF_PERICENTER":99.2221,"MEAN_ANOMALY":269.6339,"EPHEMERIS_TYPE":0,"CLASSIFICATION_TYPE":"U","NORAD_CAT_ID":81615,"ELEMENT_SET_NO":999,"REV_AT_EPOCH":59351,"BSTAR":0.0012109,"MEAN_MOTION_DOT":3.336e-5,"MEAN_MOTION_DDOT":0},{"OBJECT_NAME":"UNKNOWN","OBJECT_ID":"","EPOCH":"2026-03-03T10:56:54.189600","MEAN_MOTION":12.57599647,"ECCENTRICITY":0.0032099,"INCLINATION":101.2671,"RA_OF_ASC_NODE":238.4103,"ARG_OF_PERICENTER":84.9061,"MEAN_ANOMALY":275.5678,"EPHEMERIS_TYPE":0,"CLASSIFICATION_TYPE":"U","NORAD_CAT_ID":81617,"ELEMENT_SET_NO":999,"REV_AT_EPOCH":56325,"BSTAR":0.00213,"MEAN_MOTION_DOT":3.16e-6,"MEAN_MOTION_DDOT":0},{"OBJECT_NAME":"UNKNOWN","OBJECT_ID":"","EPOCH":"2026-02-26T01:53:09.671424","MEAN_MOTION":14.72174479,"ECCENTRICITY":0.0063505,"INCLINATION":66.977,"RA_OF_ASC_NODE":318.5702,"ARG_OF_PERICENTER":176.9023,"MEAN_ANOMALY":183.2505,"EPHEMERIS_TYPE":0,"CLASSIFICATION_TYPE":"U","NORAD_CAT_ID":81624,"ELEMENT_SET_NO":999,"REV_AT_EPOCH":65079,"BSTAR":0.00072056,"MEAN_MOTION_DOT":4.588e-5,"MEAN_MOTION_DDOT":0},{"OBJECT_NAME":"UNKNOWN","OBJECT_ID":"","EPOCH":"2026-02-28T11:52:12.372960","MEAN_MOTION":12.57288869,"ECCENTRICITY":0.097882,"INCLINATION":65.8284,"RA_OF_ASC_NODE":332.9748,"ARG_OF_PERICENTER":45.893,"MEAN_ANOMALY":321.8505,"EPHEMERIS_TYPE":0,"CLASSIFICATION_TYPE":"U","NORAD_CAT_ID":81640,"ELEMENT_SET_NO":999,"REV_AT_EPOCH":51985,"BSTAR":0.00065135,"MEAN_MOTION_DOT":6.54e-6,"MEAN_MOTION_DDOT":0},{"OBJECT_NAME":"UNKNOWN","OBJECT_ID":"","EPOCH":"2026-03-02T05:52:48.704160","MEAN_MOTION":13.44494129,"ECCENTRICITY":0.0363381,"INCLINATION":102.1455,"RA_OF_ASC_NODE":331.2297,"ARG_OF_PERICENTER":181.9755,"MEAN_ANOMALY":331.2613,"EPHEMERIS_TYPE":0,"CLASSIFICATION_TYPE":"U","NORAD_CAT_ID":81652,"ELEMENT_SET_NO":999,"REV_AT_EPOCH":58933,"BSTAR":0.00058473,"MEAN_MOTION_DOT":4.47e-6,"MEAN_MOTION_DDOT":0},{"OBJECT_NAME":"UNKNOWN","OBJECT_ID":"","EPOCH":"2026-03-01T04:48:30.341952","MEAN_MOTION":14.48477543,"ECCENTRICITY":0.0015567,"INCLINATION":74.0326,"RA_OF_ASC_NODE":249.6663,"ARG_OF_PERICENTER":163.3182,"MEAN_ANOMALY":196.8492,"EPHEMERIS_TYPE":0,"CLASSIFICATION_TYPE":"U","NORAD_CAT_ID":81667,"ELEMENT_SET_NO":999,"REV_AT_EPOCH":46800,"BSTAR":0.00090836,"MEAN_MOTION_DOT":3.387e-5,"MEAN_MOTION_DDOT":0},{"OBJECT_NAME":"UNKNOWN","OBJECT_ID":"","EPOCH":"2026-02-26T23:11:17.329056","MEAN_MOTION":14.10128568,"ECCENTRICITY":0.002495,"INCLINATION":66.8236,"RA_OF_ASC_NODE":172.2986,"ARG_OF_PERICENTER":182.2064,"MEAN_ANOMALY":291.0582,"EPHEMERIS_TYPE":0,"CLASSIFICATION_TYPE":"U","NORAD_CAT_ID":81674,"ELEMENT_SET_NO":999,"REV_AT_EPOCH":62446,"BSTAR":0.00061639,"MEAN_MOTION_DOT":1.014e-5,"MEAN_MOTION_DDOT":0},{"OBJECT_NAME":"UNKNOWN","OBJECT_ID":"","EPOCH":"2026-03-02T20:27:46.543392","MEAN_MOTION":14.57989266,"ECCENTRICITY":0.0023364,"INCLINATION":81.2149,"RA_OF_ASC_NODE":210.843,"ARG_OF_PERICENTER":53.7631,"MEAN_ANOMALY":306.5721,"EPHEMERIS_TYPE":0,"CLASSIFICATION_TYPE":"U","NORAD_CAT_ID":81683,"ELEMENT_SET_NO":999,"REV_AT_EPOCH":64753,"BSTAR":0.0010207,"MEAN_MOTION_DOT":4.719e-5,"MEAN_MOTION_DDOT":0},{"OBJECT_NAME":"UNKNOWN","OBJECT_ID":"","EPOCH":"2026-02-02T14:28:43.739328","MEAN_MOTION":12.25967259,"ECCENTRICITY":0.0365424,"INCLINATION":101.0975,"RA_OF_ASC_NODE":94.3495,"ARG_OF_PERICENTER":344.6978,"MEAN_ANOMALY":14.3266,"EPHEMERIS_TYPE":0,"CLASSIFICATION_TYPE":"U","NORAD_CAT_ID":81693,"ELEMENT_SET_NO":999,"REV_AT_EPOCH":97412,"BSTAR":0.0071303,"MEAN_MOTION_DOT":9.5e-6,"MEAN_MOTION_DDOT":0},{"OBJECT_NAME":"UNKNOWN","OBJECT_ID":"","EPOCH":"2026-03-02T02:00:56.049984","MEAN_MOTION":14.4079762,"ECCENTRICITY":0.0002967,"INCLINATION":70.9991,"RA_OF_ASC_NODE":213.7849,"ARG_OF_PERICENTER":99.6396,"MEAN_ANOMALY":260.5075,"EPHEMERIS_TYPE":0,"CLASSIFICATION_TYPE":"U","NORAD_CAT_ID":81745,"ELEMENT_SET_NO":999,"REV_AT_EPOCH":64117,"BSTAR":0.0010839,"MEAN_MOTION_DOT":3.423e-5,"MEAN_MOTION_DDOT":0},{"OBJECT_NAME":"UNKNOWN","OBJECT_ID":"","EPOCH":"2026-03-02T05:07:19.516512","MEAN_MOTION":14.42122005,"ECCENTRICITY":0.0013053,"INCLINATION":82.921,"RA_OF_ASC_NODE":158.3653,"ARG_OF_PERICENTER":2.96,"MEAN_ANOMALY":357.1668,"EPHEMERIS_TYPE":0,"CLASSIFICATION_TYPE":"U","NORAD_CAT_ID":81775,"ELEMENT_SET_NO":999,"REV_AT_EPOCH":63672,"BSTAR":0.0021897,"MEAN_MOTION_DOT":7.226e-5,"MEAN_MOTION_DDOT":0}]
